[{"OBJECT_NAME":"CENTISPACE-1 OBJECT A","OBJECT_ID":"2026-060A","EPOCH":"2026-03-29T05:03:35.889120","MEAN_MOTION":14.74875752,"ECCENTRICITY":0.0012588,"INCLINATION":54.9829,"RA_OF_ASC_NODE":1.987,"ARG_OF_PERICENTER":306.6365,"MEAN_ANOMALY":53.3476,"EPHEMERIS_TYPE":0,"CLASSIFICATION_TYPE":"U","NORAD_CAT_ID":68350,"ELEMENT_SET_NO":999,"REV_AT_EPOCH":97,"BSTAR":4.3236e-5,"MEAN_MOTION_DOT":8.3e-7,"MEAN_MOTION_DDOT":0},{"OBJECT_NAME":"CENTISPACE-1 OBJECT B","OBJECT_ID":"2026-060B","EPOCH":"2026-03-29T05:03:23.745600","MEAN_MOTION":14.74917241,"ECCENTRICITY":0.0012834,"INCLINATION":54.9811,"RA_OF_ASC_NODE":1.9827,"ARG_OF_PERICENTER":306.7495,"MEAN_ANOMALY":53.2325,"EPHEMERIS_TYPE":0,"CLASSIFICATION_TYPE":"U","NORAD_CAT_ID":68351,"ELEMENT_SET_NO":999,"REV_AT_EPOCH":97,"BSTAR":3.7405e-5,"MEAN_MOTION_DOT":4.4e-7,"MEAN_MOTION_DDOT":0},{"OBJECT_NAME":"CENTISPACE-1 OBJECT C","OBJECT_ID":"2026-060C","EPOCH":"2026-03-28T20:54:19.562400","MEAN_MOTION":14.75106888,"ECCENTRICITY":0.00125783,"INCLINATION":54.9833,"RA_OF_ASC_NODE":3.3646,"ARG_OF_PERICENTER":314.7166,"MEAN_ANOMALY":45.2808,"EPHEMERIS_TYPE":0,"CLASSIFICATION_TYPE":"U","NORAD_CAT_ID":68352,"ELEMENT_SET_NO":999,"REV_AT_EPOCH":92,"BSTAR":3.5349223e-5,"MEAN_MOTION_DOT":3.1e-7,"MEAN_MOTION_DDOT":0},{"OBJECT_NAME":"CENTISPACE-1 OBJECT D","OBJECT_ID":"2026-060D","EPOCH":"2026-03-28T01:23:09.602592","MEAN_MOTION":14.75149317,"ECCENTRICITY":0.0012484,"INCLINATION":54.9867,"RA_OF_ASC_NODE":6.6935,"ARG_OF_PERICENTER":311.4708,"MEAN_ANOMALY":48.5219,"EPHEMERIS_TYPE":0,"CLASSIFICATION_TYPE":"U","NORAD_CAT_ID":68353,"ELEMENT_SET_NO":999,"REV_AT_EPOCH":80,"BSTAR":3.6681e-5,"MEAN_MOTION_DOT":4.0e-7,"MEAN_MOTION_DDOT":0},{"OBJECT_NAME":"CENTISPACE-1 OBJECT E","OBJECT_ID":"2026-060E","EPOCH":"2026-03-29T05:01:37.507296","MEAN_MOTION":14.75191783,"ECCENTRICITY":0.0013194,"INCLINATION":54.9778,"RA_OF_ASC_NODE":1.9755,"ARG_OF_PERICENTER":316.6442,"MEAN_ANOMALY":43.3518,"EPHEMERIS_TYPE":0,"CLASSIFICATION_TYPE":"U","NORAD_CAT_ID":68354,"ELEMENT_SET_NO":999,"REV_AT_EPOCH":97,"BSTAR":4.3441e-5,"MEAN_MOTION_DOT":8.6e-7,"MEAN_MOTION_DDOT":0},{"OBJECT_NAME":"CENTISPACE-1 OBJECT F","OBJECT_ID":"2026-060F","EPOCH":"2026-03-29T05:01:24.942144","MEAN_MOTION":14.75229046,"ECCENTRICITY":0.0013551,"INCLINATION":54.9778,"RA_OF_ASC_NODE":1.9749,"ARG_OF_PERICENTER":315.191,"MEAN_ANOMALY":44.7994,"EPHEMERIS_TYPE":0,"CLASSIFICATION_TYPE":"U","NORAD_CAT_ID":68355,"ELEMENT_SET_NO":999,"REV_AT_EPOCH":97,"BSTAR":3.7515e-5,"MEAN_MOTION_DOT":4.6e-7,"MEAN_MOTION_DDOT":0},{"OBJECT_NAME":"CENTISPACE-1 OBJECT G","OBJECT_ID":"2026-060G","EPOCH":"2026-03-28T22:30:37.971936","MEAN_MOTION":14.7531337,"ECCENTRICITY":0.0014052,"INCLINATION":54.9926,"RA_OF_ASC_NODE":3.0806,"ARG_OF_PERICENTER":316.4035,"MEAN_ANOMALY":43.5854,"EPHEMERIS_TYPE":0,"CLASSIFICATION_TYPE":"U","NORAD_CAT_ID":68356,"ELEMENT_SET_NO":999,"REV_AT_EPOCH":93,"BSTAR":3.7338e-5,"MEAN_MOTION_DOT":4.5e-7,"MEAN_MOTION_DDOT":0},{"OBJECT_NAME":"CENTISPACE-1 OBJECT H","OBJECT_ID":"2026-060H","EPOCH":"2026-03-25T14:49:38.254368","MEAN_MOTION":14.75425125,"ECCENTRICITY":0.00144709,"INCLINATION":54.9848,"RA_OF_ASC_NODE":16.6351,"ARG_OF_PERICENTER":304.4277,"MEAN_ANOMALY":55.5354,"EPHEMERIS_TYPE":0,"CLASSIFICATION_TYPE":"U","NORAD_CAT_ID":68357,"ELEMENT_SET_NO":999,"REV_AT_EPOCH":44,"BSTAR":3.3491501e-5,"MEAN_MOTION_DOT":1.9e-7,"MEAN_MOTION_DDOT":0},{"OBJECT_NAME":"CENTISPACE-1 OBJECT J","OBJECT_ID":"2026-060J","EPOCH":"2026-03-25T14:49:37.060320","MEAN_MOTION":14.75435012,"ECCENTRICITY":0.0013871,"INCLINATION":54.9877,"RA_OF_ASC_NODE":16.6351,"ARG_OF_PERICENTER":306.1411,"MEAN_ANOMALY":53.8304,"EPHEMERIS_TYPE":0,"CLASSIFICATION_TYPE":"U","NORAD_CAT_ID":68358,"ELEMENT_SET_NO":999,"REV_AT_EPOCH":44,"BSTAR":3.3263e-5,"MEAN_MOTION_DOT":1.7e-7,"MEAN_MOTION_DDOT":0},{"OBJECT_NAME":"CENTISPACE-1 OBJECT K","OBJECT_ID":"2026-060K","EPOCH":"2026-03-28T20:51:56.577312","MEAN_MOTION":14.75497382,"ECCENTRICITY":0.00146657,"INCLINATION":54.9801,"RA_OF_ASC_NODE":3.3573,"ARG_OF_PERICENTER":314.9648,"MEAN_ANOMALY":45.0162,"EPHEMERIS_TYPE":0,"CLASSIFICATION_TYPE":"U","NORAD_CAT_ID":68359,"ELEMENT_SET_NO":999,"REV_AT_EPOCH":92,"BSTAR":3.5282325e-5,"MEAN_MOTION_DOT":3.1e-7,"MEAN_MOTION_DDOT":0},{"OBJECT_NAME":"SUPERVIEW NEO-2 OBJECT A","OBJECT_ID":"2026-062A","EPOCH":"2026-03-28T02:27:44.406720","MEAN_MOTION":15.20117201,"ECCENTRICITY":0.00081688,"INCLINATION":97.4379,"RA_OF_ASC_NODE":95.5549,"ARG_OF_PERICENTER":263.6047,"MEAN_ANOMALY":96.4258,"EPHEMERIS_TYPE":0,"CLASSIFICATION_TYPE":"U","NORAD_CAT_ID":68377,"ELEMENT_SET_NO":999,"REV_AT_EPOCH":33,"BSTAR":7.2014081e-5,"MEAN_MOTION_DOT":1.488e-5,"MEAN_MOTION_DDOT":0},{"OBJECT_NAME":"SUPERVIEW NEO-2 OBJECT B","OBJECT_ID":"2026-062B","EPOCH":"2026-03-27T01:10:54.793056","MEAN_MOTION":15.20012563,"ECCENTRICITY":0.00103961,"INCLINATION":97.4356,"RA_OF_ASC_NODE":94.5245,"ARG_OF_PERICENTER":272.384,"MEAN_ANOMALY":87.6205,"EPHEMERIS_TYPE":0,"CLASSIFICATION_TYPE":"U","NORAD_CAT_ID":68378,"ELEMENT_SET_NO":999,"REV_AT_EPOCH":17,"BSTAR":0.00014872926,"MEAN_MOTION_DOT":3.139e-5,"MEAN_MOTION_DDOT":0},{"OBJECT_NAME":"CZ-2D R/B","OBJECT_ID":"2026-062C","EPOCH":"2026-03-29T04:45:43.646112","MEAN_MOTION":15.31027778,"ECCENTRICITY":0.0053552,"INCLINATION":97.4971,"RA_OF_ASC_NODE":96.5082,"ARG_OF_PERICENTER":50.3966,"MEAN_ANOMALY":310.1985,"EPHEMERIS_TYPE":0,"CLASSIFICATION_TYPE":"U","NORAD_CAT_ID":68379,"ELEMENT_SET_NO":999,"REV_AT_EPOCH":50,"BSTAR":0.0002766,"MEAN_MOTION_DOT":8.586e-5,"MEAN_MOTION_DDOT":0},{"OBJECT_NAME":"SHIYAN-33","OBJECT_ID":"2026-064A","EPOCH":"2026-03-28T22:14:04.790976","MEAN_MOTION":15.23577189,"ECCENTRICITY":0.00149095,"INCLINATION":97.4665,"RA_OF_ASC_NODE":163.8675,"ARG_OF_PERICENTER":225.4312,"MEAN_ANOMALY":134.5709,"EPHEMERIS_TYPE":0,"CLASSIFICATION_TYPE":"U","NORAD_CAT_ID":68405,"ELEMENT_SET_NO":999,"REV_AT_EPOCH":27,"BSTAR":0.00027404343,"MEAN_MOTION_DOT":6.503e-5,"MEAN_MOTION_DDOT":0},{"OBJECT_NAME":"2026-065A","OBJECT_ID":"2026-065A","EPOCH":"2026-03-28T22:34:26.975136","MEAN_MOTION":15.18211376,"ECCENTRICITY":0.0015809,"INCLINATION":97.4112,"RA_OF_ASC_NODE":330.1101,"ARG_OF_PERICENTER":287.1112,"MEAN_ANOMALY":72.839,"EPHEMERIS_TYPE":0,"CLASSIFICATION_TYPE":"U","NORAD_CAT_ID":68408,"ELEMENT_SET_NO":999,"REV_AT_EPOCH":8,"BSTAR":7.0532e-5,"MEAN_MOTION_DOT":1.379e-5,"MEAN_MOTION_DDOT":0}]
